{
    "links": {
        "self": "http://www.neowsapp.com/rest/v1/neo/3872631?api_key=iIulBulltgU6a56xZRHN4H3l9WmuAYTsLGpBGhQ2"
    },
    "id": "3872631",
    "neo_reference_id": "3872631",
    "name": "(2019 SC8)",
    "designation": "2019 SC8",
    "nasa_jpl_url": "http://ssd.jpl.nasa.gov/sbdb.cgi?sstr=3872631",
    "absolute_magnitude_h": 23.5,
    "estimated_diameter": {
        "kilometers": {
            "estimated_diameter_min": 0.0530340723,
            "estimated_diameter_max": 0.1185877909
        },
        "meters": {
            "estimated_diameter_min": 53.0340723319,
            "estimated_diameter_max": 118.5877908577
        },
        "miles": {
            "estimated_diameter_min": 0.0329538346,
            "estimated_diameter_max": 0.0736870142
        },
        "feet": {
            "estimated_diameter_min": 173.9963058693,
            "estimated_diameter_max": 389.0675677576
        }
    },
    "is_potentially_hazardous_asteroid": false,
    "close_approach_data": [
        {
            "close_approach_date": "2018-09-21",
            "close_approach_date_full": "2018-Sep-21 06:43",
            "epoch_date_close_approach": 1537512180000,
            "relative_velocity": {
                "kilometers_per_second": "29.4981220008",
                "kilometers_per_hour": "106193.2392027436",
                "miles_per_hour": "65984.3491035047"
            },
            "miss_distance": {
                "astronomical": "0.3492174252",
                "lunar": "135.8455784028",
                "kilometers": "52242182.976804324",
                "miles": "32461787.2287107112"
            },
            "orbiting_body": "Earth"
        },
        {
            "close_approach_date": "2019-10-03",
            "close_approach_date_full": "2019-Oct-03 14:29",
            "epoch_date_close_approach": 1570112940000,
            "relative_velocity": {
                "kilometers_per_second": "19.9671765985",
                "kilometers_per_hour": "71881.8357544517",
                "miles_per_hour": "44664.5773330925"
            },
            "miss_distance": {
                "astronomical": "0.0860282835",
                "lunar": "33.4650022815",
                "kilometers": "12869647.971356145",
                "miles": "7996828.431539001"
            },
            "orbiting_body": "Earth"
        },
        {
            "close_approach_date": "2020-09-27",
            "close_approach_date_full": "2020-Sep-27 19:36",
            "epoch_date_close_approach": 1601235360000,
            "relative_velocity": {
                "kilometers_per_second": "15.836891936",
                "kilometers_per_hour": "57012.8109697721",
                "miles_per_hour": "35425.5435717453"
            },
            "miss_distance": {
                "astronomical": "0.3802772775",
                "lunar": "147.9278609475",
                "kilometers": "56888670.723398925",
                "miles": "35348980.833498165"
            },
            "orbiting_body": "Earth"
        }
    ],
    "orbital_data": {
        "orbit_id": "5",
        "orbit_determination_date": "2020-09-11 07:44:47",
        "first_observation_date": "2019-09-24",
        "last_observation_date": "2019-10-03",
        "data_arc_in_days": 9,
        "observations_used": 73,
        "orbit_uncertainty": "8",
        "minimum_orbit_intersection": ".0806502",
        "jupiter_tisserand_invariant": "5.658",
        "epoch_osculation": "2458754.5",
        "eccentricity": ".5298159943394922",
        "semi_major_axis": "1.04234408987286",
        "inclination": "28.75122215858499",
        "ascending_node_longitude": "2.596288430758525",
        "orbital_period": "388.7004910543496",
        "perihelion_distance": ".4900935194529775",
        "perihelion_argument": "130.1181039393542",
        "aphelion_distance": "1.594594660292742",
        "perihelion_time": "2458826.471921192496",
        "mean_anomaly": "293.3422719404907",
        "mean_motion": ".9261629668218334",
        "equinox": "J2000",
        "orbit_class": {
            "orbit_class_type": "APO",
            "orbit_class_description": "Near-Earth asteroid orbits which cross the Earth’s orbit similar to that of 1862 Apollo",
            "orbit_class_range": "a (semi-major axis) > 1.0 AU; q (perihelion) < 1.017 AU"
        }
    },
    "is_sentry_object": false
}